SAR-LUPE 2              
1 31797U 07030A   26159.24059529  .00031751  00000+0  59608-3 0  9993
2 31797  98.1023 262.5760 0008717 148.5924 211.5846 15.48526256 55557
SAPPHIRE                
1 39088U 13009C   26159.23834297  .00000115  00000+0  55112-4 0  9996
2 39088  98.4259 338.9069 0009978 276.5227  83.4822 14.35238070695290
PRAETORIAN SDA_602      
1 65565U 25203A   26159.06182140  .00000044  00000+0  28432-4 0  9994
2 65565  81.3037  19.2226 0005327 210.3701 149.7147 13.84342052 37436
PRAETORIAN SDA_603      
1 65566U 25203B   26159.01332556  .00000213  00000+0  18140-3 0  9990
2 65566  81.3044  19.1782 0008850 213.7345 146.3249 13.83904955 37437
PRAETORIAN SDA_604      
1 65567U 25203C   26159.09970219  .00000109  00000+0  88496-4 0  9999
2 65567  81.3059  19.4961 0004825 218.9262 141.1548 13.83046884 37421
PRAETORIAN SDA_605      
1 65568U 25203D   26159.13989512  .00000067  00000+0  50500-4 0  9999
2 65568  81.3024  19.1307 0007634 208.6341 151.4397 13.83433717 37443
PRAETORIAN SDA_606      
1 65569U 25203E   26159.12226739  .00000062  00000+0  45904-4 0  9991
2 65569  81.3061  19.3651 0005257 207.2620 152.8261 13.83406595 37431
PRAETORIAN SDA_607      
1 65570U 25203F   26159.13603854  .00000229  00000+0  19459-3 0  9991
2 65570  81.3043  19.0300 0008162 215.6962 144.3650 13.84286201 37452
PRAETORIAN SDA_608      
1 65571U 25203G   26159.11038372  .00000082  00000+0  63344-4 0  9997
2 65571  81.3012  19.2113 0005353 217.6845 142.3937 13.83816274 37436
PRAETORIAN SDA_609      
1 65572U 25203H   26159.11806953  .00000215  00000+0  18236-3 0  9993
2 65572  81.3056  19.1890 0006240 210.8341 149.2450 13.84284831 37444
PRAETORIAN SDA_610      
1 65573U 25203J   26159.09036870  .00000054  00000+0  37912-4 0  9998
2 65573  81.3014  19.1882 0006010 214.9114 145.1649 13.83851329 37433
PRAETORIAN SDA_611      
1 65574U 25203K   26159.01525364  .00000008  00000+0 -36347-5 0  9994
2 65574  81.3020  19.4160 0004849 222.2668 137.8115 13.83308837 37412
PRAETORIAN SDA_612      
1 65575U 25203L   26159.01631145  .00000271  00000+0  22877-3 0  9992
2 65575  81.3037  19.0246 0008594 213.4330 146.6285 13.85038051 37440
PRAETORIAN SDA_613      
1 65576U 25203M   26159.09075193  .00000048  00000+0  33289-4 0  9998
2 65576  81.3006  19.3359 0005105 210.2592 149.8269 13.82764398 37427
PRAETORIAN SDA_614      
1 65577U 25203N   26159.00376286  .00000060  00000+0  42988-4 0  9997
2 65577  81.3020  19.1108 0006559 209.8945 150.1838 13.84777761 37443
PRAETORIAN SDA_615      
1 65578U 25203P   26159.12292417  .00000170  00000+0  14127-3 0  9999
2 65578  81.3027  18.9586 0008429 211.3363 148.7293 13.84436068 37459
PRAETORIAN SDA_616      
1 65579U 25203Q   26159.08652509  .00000152  00000+0  12766-3 0  9994
2 65579  81.3070  19.4893 0004787 219.5695 140.5112 13.83267093 37422
PRAETORIAN SDA_617      
1 65580U 25203R   26159.10735445  .00000054  00000+0  38952-4 0  9997
2 65580  81.3043  19.3019 0006790 210.2050 149.8716 13.83149936 37430
PRAETORIAN SDA_618      
1 65581U 25203S   26159.09050048  .00000125  00000+0  10044-3 0  9995
2 65581  81.3029  18.9221 0009110 213.7845 146.2733 13.84668880 37451
PRAETORIAN SDA_619      
1 65582U 25203T   26159.12077432  .00000131  00000+0  10777-3 0  9996
2 65582  81.3050  19.1766 0007587 211.5122 148.5581 13.83805249 38079
PRAETORIAN SDA_620      
1 65583U 25203U   26159.14753596  .00000158  00000+0  13275-3 0  9996
2 65583  81.3039  19.1710 0007111 206.3710 153.7085 13.83617435 37449
PRAETORIAN SDA_621      
1 65584U 25203V   26159.12251854  .00000086  00000+0  66642-4 0  9992
2 65584  81.3027  19.1158 0006896 204.3247 155.7585 13.83800726 37449
PRAETORIAN SDA_601      
1 65585U 25203W   26159.08900198  .00000024  00000+0  11167-4 0  9994
2 65585  81.3049  19.4330 0004760 223.6759 136.4021 13.83166900 37427
